NORAD_CAT_ID,OBJECT_NAME,OBJECT_TYPE,EPOCH,MEAN_MOTION,ECCENTRICITY,INCLINATION,RA_OF_ASC_NODE,ARG_OF_PERICENTER,MEAN_ANOMALY,BSTAR,MEAN_MOTION_DOT,MEAN_MOTION_DDOT,TLE_LINE0,TLE_LINE1,TLE_LINE2,SEMIMAJOR_AXIS,PERIOD,APOGEE,PERIGEE,DECAYED
53009.0,STARLINK-4277,PAYLOAD,2023-04-01 14:46:51,15.08846177,0.0001457,53.2155,221.3312,131.3724,228.7393,0.0017707,0.0002801,0.0,0 STARLINK-4277,1 53009U 22076Z   23091.61587050  .00028010  00000-0  17707-2 0  9996,2 53009  53.2155 221.3312 0001457 131.3724 228.7393 15.08846177 41457,6917.862,95.437,540.734,538.719,0.0
53009.0,STARLINK-4277,PAYLOAD,2023-04-02 08:16:06,15.08864151,0.0001621,53.2144,218.0656,96.5894,263.5283,0.0021559,0.00034213,0.0,0 STARLINK-4277,1 53009U 22076Z   23092.34451404  .00034213  00000-0  21559-2 0  9992,2 53009  53.2144 218.0656 0001621  96.5894 263.5283 15.08864151 41561,6917.807,95.436,540.793,538.55,0.0
53009.0,STARLINK-4277,PAYLOAD,2023-04-02 14:37:38,15.08862985,0.000145,53.2153,216.8751,98.2637,261.8519,0.0011527,0.00018116,0.0,0 STARLINK-4277,1 53009U 22076Z   23092.60946983  .00018116  00000-0  11527-2 0  9990,2 53009  53.2153 216.8751 0001450  98.2637 261.8519 15.08862985 41136,6917.81,95.436,540.678,538.672,0.0
53009.0,STARLINK-4277,PAYLOAD,2023-04-03 01:45:20,15.08855118,0.0001402,53.2159,214.795,73.0791,287.0355,0.00070048,0.00010882,0.0,0 STARLINK-4277,1 53009U 22076Z   23093.07314870  .00010882  00000-0  70048-3 0  9992,2 53009  53.2159 214.7950 0001402  73.0791 287.0355 15.08855118 41676,6917.834,95.437,540.669,538.729,0.0
53009.0,STARLINK-4277,PAYLOAD,2023-04-03 11:17:38,15.08852888,0.0002264,53.2161,213.0045,121.2752,238.8462,0.00036943,5.598e-05,0.0,0 STARLINK-4277,1 53009U 22076Z   23093.47058734  .00005598  00000-0  36943-3 0  9994,2 53009  53.2161 213.0045 0002264 121.2752 238.8462 15.08852888 41265,6917.841,95.437,541.272,538.14,0.0
53009.0,STARLINK-4277,PAYLOAD,2023-04-03 17:39:11,15.08848524,0.000164,53.2153,211.8181,99.085,261.0328,0.0004618,7.071e-05,0.0,0 STARLINK-4277,1 53009U 22076Z   23093.73554854  .00007071  00000-0  46180-3 0  9999,2 53009  53.2153 211.8181 0001640  99.0850 261.0328 15.08848524 41778,6917.854,95.437,540.854,538.585,0.0
53009.0,STARLINK-4277,PAYLOAD,2023-04-04 11:08:26,15.08846737,0.0001685,53.2142,208.5479,85.4446,274.6738,0.00047237,7.239e-05,0.0,0 STARLINK-4277,1 53009U 22076Z   23094.46419021  .00007239  00000-0  47237-3 0  9996,2 53009  53.2142 208.5479 0001685  85.4446 274.6738 15.08846737 41889,6917.86,95.437,540.89,538.559,0.0
53009.0,STARLINK-4277,PAYLOAD,2023-04-04 17:29:58,15.08852781,0.0001539,53.2145,207.3591,72.7194,287.3967,0.0005884,9.092e-05,0.0,0 STARLINK-4277,1 53009U 22076Z   23094.72914791  .00009092  00000-0  58840-3 0  9990,2 53009  53.2145 207.3591 0001539  72.7194 287.3967 15.08852781 41455,6917.841,95.437,540.771,538.642,0.0
53009.0,STARLINK-4277,PAYLOAD,2023-04-05 06:13:03,15.08837074,0.0001565,53.2168,204.9828,106.5041,253.6123,-4.6914e-05,-1.035e-05,0.0,0 STARLINK-4277,1 53009U 22076Z   23095.25907104 -.00001035  00000-0 -46914-4 0  9990,2 53009  53.2168 204.9828 0001565 106.5041 253.6123 15.08837074 42002,6917.889,95.438,540.837,538.672,0.0
53009.0,STARLINK-4277,PAYLOAD,2023-04-05 14:09:59,15.08837614,0.000139,53.2161,203.4932,102.1436,257.9712,0.00019401,2.801e-05,0.0,0 STARLINK-4277,1 53009U 22076Z   23095.59027254  .00002801  00000-0  19401-3 0  9996,2 53009  53.2161 203.4932 0001390 102.1436 257.9712 15.08837614 41584,6917.888,95.438,540.714,538.791,0.0
53009.0,STARLINK-4277,PAYLOAD,2023-04-06 07:39:14,15.08839107,0.0001352,53.2177,200.2242,101.4613,258.6531,0.00030472,4.565e-05,0.0,0 STARLINK-4277,1 53009U 22076Z   23096.31891449  .00004565  00000-0  30472-3 0  9992,2 53009  53.2177 200.2242 0001352 101.4613 258.6531 15.08839107 42168,6917.883,95.438,540.683,538.813,0.0
53009.0,STARLINK-4277,PAYLOAD,2023-04-06 12:25:23,15.08842651,0.0001416,53.2176,199.3318,105.4703,254.6446,0.00041248,6.283e-05,0.0,0 STARLINK-4277,1 53009U 22076Z   23096.51763501  .00006283  00000-0  41248-3 0  9993,2 53009  53.2176 199.3318 0001416 105.4703 254.6446 15.08842651 41724,6917.872,95.437,540.717,538.758,0.0
53009.0,STARLINK-4277,PAYLOAD,2023-04-06 17:11:32,15.08848398,0.000117,53.2161,198.4393,91.9961,268.1165,0.00065464,0.00010148,0.0,0 STARLINK-4277,1 53009U 22076Z   23096.71635309  .00010148  00000-0  65464-3 0  9990,2 53009  53.2161 198.4393 0001170  91.9961 268.1165 15.08848398 41758,6917.855,95.437,540.529,538.91,0.0
53009.0,STARLINK-4277,PAYLOAD,2023-04-07 12:16:10,15.08844207,0.0001075,53.2155,194.8709,84.2922,275.8193,0.00020901,3.041e-05,0.0,0 STARLINK-4277,1 53009U 22076Z   23097.51123332  .00003041  00000-0  20901-3 0  9998,2 53009  53.2155 194.8709 0001075  84.2922 275.8193 15.08844207 42345,6917.868,95.437,540.476,538.989,0.0
53009.0,STARLINK-4277,PAYLOAD,2023-04-08 12:06:57,15.08842702,0.0001515,53.2169,190.4108,85.4281,274.6884,0.00011766,1.585e-05,0.0,0 STARLINK-4277,1 53009U 22076Z   23098.50483380  .00001585  00000-0  11766-3 0  9990,2 53009  53.2169 190.4108 0001515  85.4281 274.6884 15.08842702 42022,6917.872,95.437,540.785,538.689,0.0
53009.0,STARLINK-4277,PAYLOAD,2023-04-08 13:42:20,15.08846627,0.0001374,53.2163,190.1128,87.228,272.8869,0.00015191,2.131e-05,0.0,0 STARLINK-4277,1 53009U 22076Z   23098.57107203  .00002131  00000-0  15191-3 0  9998,2 53009  53.2163 190.1128 0001374  87.2280 272.8869 15.08846627 42503,6917.86,95.437,540.676,538.775,0.0
53009.0,STARLINK-4277,PAYLOAD,2023-04-09 05:36:12,15.08841696,0.0001306,53.2152,187.1401,89.3642,270.75,0.00013304,1.83e-05,0.0,0 STARLINK-4277,1 53009U 22076Z   23099.23347364  .00001830  00000-0  13304-3 0  9995,2 53009  53.2152 187.1401 0001306  89.3642 270.7500 15.08841696 42602,6917.875,95.437,540.644,538.837,0.0
53009.0,STARLINK-4277,PAYLOAD,2023-04-09 10:22:21,15.08840915,0.0001342,53.2161,186.2477,91.6125,268.5021,0.00013866,1.92e-05,0.0,0 STARLINK-4277,1 53009U 22076Z   23099.43219450  .00001920  00000-0  13866-3 0  9994,2 53009  53.2161 186.2477 0001342  91.6125 268.5021 15.08840915 42164,6917.878,95.437,540.671,538.814,0.0
53009.0,STARLINK-4277,PAYLOAD,2023-04-09 11:57:44,15.08841907,0.0001444,53.2157,185.9501,93.942,266.1737,0.00012628,1.722e-05,0.0,0 STARLINK-4277,1 53009U 22076Z   23099.49843369  .00001722  00000-0  12628-3 0  9997,2 53009  53.2157 185.9501 0001444  93.9420 266.1737 15.08841907 42170,6917.875,95.437,540.739,538.741,0.0
53009.0,STARLINK-4277,PAYLOAD,2023-04-10 05:26:59,15.08838582,0.0001762,53.2167,182.6803,75.736,284.3828,0.0001224,1.66e-05,0.0,0 STARLINK-4277,1 53009U 22076Z   23100.22707975  .00001660  00000-0  12240-3 0  9994,2 53009  53.2167 182.6803 0001762  75.7360 284.3828 15.08838582 42756,6917.885,95.438,540.969,538.531,0.0
53009.0,STARLINK-4277,PAYLOAD,2023-04-11 11:39:18,15.08853819,0.0001339,53.2143,177.0287,78.3302,281.784,0.00027956,4.166e-05,0.0,0 STARLINK-4277,1 53009U 22076Z   23101.48562930  .00004166  00000-0  27956-3 0  9997,2 53009  53.2143 177.0287 0001339  78.3302 281.7840 15.08853819 42473,6917.838,95.437,540.629,538.777,0.0
53009.0,STARLINK-4277,PAYLOAD,2023-04-12 09:54:42,15.08839654,0.0001226,53.2143,172.865,98.4306,261.6825,2.4452e-05,1.01e-06,0.0,0 STARLINK-4277,1 53009U 22076Z   23102.41299330  .00000101  00000-0  24452-4 0  9996,2 53009  53.2143 172.8650 0001226  98.4306 261.6825 15.08839654 42619,6917.881,95.438,540.595,538.898,0.0
53009.0,STARLINK-4277,PAYLOAD,2023-04-13 09:45:29,15.08840908,0.0001239,53.2148,168.4047,88.1508,271.9626,7.4337e-05,8.95e-06,0.0,0 STARLINK-4277,1 53009U 22076Z   23103.40659396  .00000895  00000-0  74337-4 0  9995,2 53009  53.2148 168.4047 0001239  88.1508 271.9626 15.08840908 42762,6917.878,95.437,540.6,538.885,0.0
53009.0,STARLINK-4277,PAYLOAD,2023-04-13 11:20:52,15.08843132,0.0001307,53.2153,168.1075,91.1952,268.919,0.0001146,1.537e-05,0.0,0 STARLINK-4277,1 53009U 22076Z   23103.47283324  .00001537  00000-0  11460-3 0  9997,2 53009  53.2153 168.1075 0001307  91.1952 268.9190 15.08843132 43247,6917.871,95.437,540.64,538.832,0.0
53009.0,STARLINK-4277,PAYLOAD,2023-04-14 09:36:17,15.0884206,0.000132,53.2168,163.9453,104.161,255.9529,0.00024016,3.537e-05,0.0,0 STARLINK-4277,1 53009U 22076Z   23104.40019762  .00003537  00000-0  24016-3 0  9997,2 53009  53.2168 163.9453 0001320 104.1610 255.9529 15.08842060 43383,6917.874,95.437,540.652,538.826,0.0
53009.0,STARLINK-4277,PAYLOAD,2023-04-14 11:11:40,15.08842752,0.0001204,53.2166,163.6484,106.3645,253.748,0.00026014,3.855e-05,0.0,0 STARLINK-4277,1 53009U 22076Z   23104.46643697  .00003855  00000-0  26014-3 0  9996,2 53009  53.2166 163.6484 0001204 106.3645 253.7480 15.08842752 42924,6917.872,95.437,540.57,538.904,0.0
53009.0,STARLINK-4277,PAYLOAD,2023-04-15 11:02:27,15.08842241,0.0001258,53.2168,159.1883,84.733,275.3805,0.00012105,1.639e-05,0.0,0 STARLINK-4277,1 53009U 22076Z   23105.46003810  .00001639  00000-0  12105-3 0  9998,2 53009  53.2168 159.1883 0001258  84.7330 275.3805 15.08842241 43541,6917.874,95.437,540.609,538.868,0.0
53009.0,STARLINK-4277,PAYLOAD,2023-04-15 20:34:46,15.0884249,0.0001143,53.2162,157.404,98.3979,261.7143,8.9247e-05,1.133e-05,0.0,0 STARLINK-4277,1 53009U 22076Z   23105.85747741  .00001133  00000-0  89247-4 0  9990,2 53009  53.2162 157.4040 0001143  98.3979 261.7143 15.08842490 43139,6917.873,95.437,540.528,538.947,0.0
53009.0,STARLINK-4277,PAYLOAD,2023-04-16 04:31:42,15.08836348,0.0001203,53.2168,155.9169,90.837,269.276,5.6587e-05,6.13e-06,0.0,0 STARLINK-4277,1 53009U 22076Z   23106.18868116  .00000613  00000-0  56587-4 0  9990,2 53009  53.2168 155.9169 0001203  90.8370 269.2760 15.08836348 43659,6917.892,95.438,540.589,538.924,0.0
53009.0,STARLINK-4277,PAYLOAD,2023-04-16 10:53:14,15.08840764,0.0001236,53.2172,154.7274,90.1881,269.9253,9.6923e-05,1.255e-05,0.0,0 STARLINK-4277,1 53009U 22076Z   23106.45363966  .00001255  00000-0  96923-4 0  9994,2 53009  53.2172 154.7274 0001236  90.1881 269.9253 15.08840764 43228,6917.878,95.438,540.598,538.888,0.0
